N007rdx 21.8  0.15  K1548 119.11683   75.91136  351.90874    3.64505  0.1054741  1.07358714   0.9445925                  5   1    0 days              NEOCPNomin
